[{"OBJECT_NAME":"STARLINK-6276","OBJECT_ID":"2023-099AD","EPOCH":"2026-03-09T10:32:30.668640","MEAN_MOTION":15.02525983,"ECCENTRICITY":0.00014989,"INCLINATION":43.0015,"RA_OF_ASC_NODE":237.7576,"ARG_OF_PERICENTER":265.3402,"MEAN_ANOMALY":94.7269,"EPHEMERIS_TYPE":0,"CLASSIFICATION_TYPE":"U","NORAD_CAT_ID":57355,"ELEMENT_SET_NO":999,"REV_AT_EPOCH":14622,"BSTAR":0.00012402071,"MEAN_MOTION_DOT":1.472e-5,"MEAN_MOTION_DDOT":0},{"OBJECT_NAME":"FENGYUN 1C DEB","OBJECT_ID":"1999-025BYF","EPOCH":"2026-02-08T04:35:15.972576","MEAN_MOTION":14.66466333,"ECCENTRICITY":0.01751215,"INCLINATION":99.0616,"RA_OF_ASC_NODE":209.5417,"ARG_OF_PERICENTER":124.4609,"MEAN_ANOMALY":237.3278,"EPHEMERIS_TYPE":0,"CLASSIFICATION_TYPE":"U","NORAD_CAT_ID":31540,"ELEMENT_SET_NO":999,"REV_AT_EPOCH":99143,"BSTAR":0.0011063664,"MEAN_MOTION_DOT":7.645e-5,"MEAN_MOTION_DDOT":0}]
